{
  "type": "Topology",
  "bbox": [34.268, 29.4971, 35.9009, 33.364],
  "objects": {
    "municipalities": {
      "type": "GeometryCollection",
      "geometries": [
        {
          "type": "MultiPolygon",
          "arcs": [[[0, 1, 2, 3, 4, 5, 6, 7]]],
          "properties": {
            "muni_code": "6",
            "name_he": "הדרום",
            "name_en": "Southern",
            "name_ar": "الجنوب",
            "gadm_name": "HaDarom"
          }
        },
        {
          "type": "MultiPolygon",
          "arcs": [[[8, 9, 10, 11, 12, 13, 14, 15, 16, 17, 18]]],
          "properties": {
            "muni_code": "3",
            "name_he": "חיפה",
            "name_en": "Haifa",
            "name_ar": "حيفا",
            "gadm_name": "Haifa"
          }
        },
        {
          "type": "MultiPolygon",
          "arcs": [
            [[19, -5, 20, -3, 21, -1, 22, 23, 24, -19, 25, -17, 26, 27]]
          ],
          "properties": {
            "muni_code": "4",
            "name_he": "המרכז",
            "name_en": "Central",
            "name_ar": "المركز",
            "gadm_name": "HaMerkaz"
          }
        },
        {
          "type": "MultiPolygon",
          "arcs": [[[-7, 28, -28, 29]]],
          "properties": {
            "muni_code": "1",
            "name_he": "ירושלים",
            "name_en": "Jerusalem",
            "name_ar": "القدس",
            "gadm_name": "Jerusalem"
          }
        },
        {
          "type": "MultiPolygon",
          "arcs": [[[-24, 30]]],
          "properties": {
            "muni_code": "5",
            "name_he": "תל אביב",
            "name_en": "Tel Aviv",
            "name_ar": "تل أبيب",
            "gadm_name": "TelAviv"
          }
        },
        {
          "type": "MultiPolygon",
          "arcs": [
            [[31, 32, 33, 34, 35, -15, 36, 37, -12, 38, -10, 39]],
            [[-34, 40, 41]],
            [[-32, 42]]
          ],
          "properties": {
            "muni_code": "2",
            "name_he": "הצפון",
            "name_en": "Northern",
            "name_ar": "الشمال",
            "gadm_name": "HaZafon"
          }
        }
      ]
    }
  },
  "arcs": [
    [
      [34.6861, 31.8789],
      [34.6861, 31.8011]
    ],
    [
      [34.6861, 31.8011],
      [34.6717, 31.7928]
    ],
    [
      [34.6717, 31.7928],
      [34.7406, 31.8156]
    ],
    [
      [34.7406, 31.8156],
      [34.7655, 31.8028]
    ],
    [
      [34.7655, 31.8028],
      [34.8197, 31.7908]
    ],
    [
      [34.8197, 31.7908],
      [34.8386, 31.78]
    ],
    [
      [34.8386, 31.78],
      [34.8753, 31.6542],
      [34.9692, 31.6028]
    ],
    [
      [34.9692, 31.6028],
      [34.8839, 31.3967],
      [34.9139, 31.3498],
      [35.224, 31.3672],
      [35.3937, 31.4843],
      [35.4756, 31.4882],
      [35.3949, 31.2646],
      [35.4598, 31.1204],
      [35.333, 30.8082],
      [35.2017, 30.5745],
      [35.152, 30.4186],
      [35.1758, 30.1191],
      [35.0984, 30.0226],
      [35.0327, 29.6307],
      [34.9107, 29.4971],
      [34.8559, 29.7392],
      [34.6167, 30.3605],
      [34.547, 30.4001],
      [34.4956, 30.6841],
      [34.4076, 30.8439],
      [34.268, 31.2236],
      [34.3575, 31.2856],
      [34.4079, 31.4206],
      [34.5461, 31.5426],
      [34.489, 31.5946],
      [34.6861, 31.8789]
    ],
    [
      [34.866, 32.4098],
      [34.9543, 32.8251],
      [35.0793, 32.9174]
    ],
    [
      [35.0793, 32.9174],
      [35.1536, 32.7661],
      [35.0539, 32.6444]
    ],
    [
      [35.0539, 32.6444],
      [35.0367, 32.6342]
    ],
    [
      [35.0367, 32.6342],
      [35.0814, 32.5336]
    ],
    [
      [35.0814, 32.5336],
      [35.1011, 32.5325]
    ],
    [
      [35.1011, 32.5325],
      [35.1306, 32.5331]
    ],
    [
      [35.1306, 32.5331],
      [35.2111, 32.5427]
    ],
    [
      [35.2111, 32.5427],
      [35.0613, 32.3866]
    ],
    [
      [35.0613, 32.3866],
      [35.0033, 32.3914]
    ],
    [
      [35.0033, 32.3914],
      [34.9633, 32.4053]
    ],
    [
      [34.9633, 32.4053],
      [34.866, 32.4098]
    ],
    [
      [34.8251, 31.7928],
      [34.8197, 31.7908]
    ],
    [
      [34.7655, 31.8028],
      [34.7406, 31.8156]
    ],
    [
      [34.6717, 31.7928],
      [34.6861, 31.8011]
    ],
    [
      [34.6861, 31.8789],
      [34.7394, 32.0058]
    ],
    [
      [34.7394, 32.0058],
      [34.8806, 32.0178],
      [34.8658, 32.1686],
      [34.8032, 32.193]
    ],
    [
      [34.8032, 32.193],
      [34.866, 32.4098]
    ],
    [
      [34.9633, 32.4053],
      [35.0033, 32.3914]
    ],
    [
      [35.0613, 32.3866],
      [34.969, 32.2142],
      [35.0115, 32.0448],
      [34.9753, 31.8612]
    ],
    [
      [34.9753, 31.8612],
      [34.8251, 31.7928]
    ],
    [
      [34.8386, 31.78],
      [34.8251, 31.7928]
    ],
    [
      [34.9753, 31.8612],
      [35.2324, 31.7878],
      [34.9692, 31.6028]
    ],
    [
      [34.7394, 32.0058],
      [34.8032, 32.193]
    ],
    [
      [35.6356, 33.2452],
      [35.6442, 33.2428]
    ],
    [
      [35.6442, 33.2428],
      [35.6714, 33.2509]
    ],
    [
      [35.6714, 33.2509],
      [35.6156, 33.0241],
      [35.6612, 32.8535],
      [35.6489, 32.6936]
    ],
    [
      [35.6489, 32.6936],
      [35.6494, 32.6873]
    ],
    [
      [35.6494, 32.6873],
      [35.58, 32.6329],
      [35.5679, 32.3898],
      [35.4443, 32.4098],
      [35.3906, 32.5171],
      [35.2111, 32.5427]
    ],
    [
      [35.1306, 32.5331],
      [35.1011, 32.5325]
    ],
    [
      [35.1011, 32.5325],
      [35.0814, 32.5336]
    ],
    [
      [35.0367, 32.6342],
      [35.0539, 32.6444]
    ],
    [
      [35.0793, 32.9174],
      [35.1029, 33.0941],
      [35.5028, 33.0933],
      [35.5675, 33.2908],
      [35.6356, 33.2452]
    ],
    [
      [35.6714, 33.2509],
      [35.813, 33.3463],
      [35.9009, 32.9387],
      [35.7563, 32.7262],
      [35.6494, 32.6873]
    ],
    [
      [35.6494, 32.6873],
      [35.6489, 32.6936]
    ],
    [
      [35.6356, 33.2452],
      [35.6442, 33.2428]
    ]
  ]
}
